$$SOE
2460721.500000000, A.D. 2025-Feb-15 00:00:00.0000, -3.363849386446642E+07, -4.472109597226967E+08, -1.854702236778679E+07,
2460728.500000000, A.D. 2025-Feb-22 00:00:00.0000, -2.400901256451035E+07, -4.492872306250756E+08, -1.737945481295961E+07,
2460735.500000000, A.D. 2025-Mar-01 00:00:00.0000, -1.436675304991271E+07, -4.511246407360336E+08, -1.620264372103652E+07,
2460742.500000000, A.D. 2025-Mar-08 00:00:00.0000, -4.716909961671759E+06, -4.527244050754644E+08, -1.501729401758012E+07,
2460749.500000000, A.D. 2025-Mar-15 00:00:00.0000, 4.935413601685552E+06, -4.540878108448525E+08, -1.382410138547376E+07,
2460756.500000000, A.D. 2025-Mar-22 00:00:00.0000, 1.458520226502909E+07, -4.552162134052033E+08, -1.262375210962194E+07,
2460763.500000000, A.D. 2025-Mar-29 00:00:00.0000, 2.422752588195199E+07, -4.561110347037511E+08, -1.141692324256977E+07,
2460770.500000000, A.D. 2025-Apr-05 00:00:00.0000, 3.385753869854555E+07, -4.567737610055233E+08, -1.020428286347386E+07,
2460777.500000000, A.D. 2025-Apr-12 00:00:00.0000, 4.347047825718422E+07, -4.572059398198744E+08, -8.986490244353980E+06,
2460784.500000000, A.D. 2025-Apr-19 00:00:00.0000, 5.306166385996067E+07, -4.574091768968948E+08, -7.764195977609247E+06,
2460791.500000000, A.D. 2025-Apr-26 00:00:00.0000, 6.262649486965774E+07, -4.573851334902121E+08, -6.538042105495334E+06,
2460798.500000000, A.D. 2025-May-03 00:00:00.0000, 7.216044896750069E+07, -4.571355238604559E+08, -5.308662259648174E+06,
2460805.500000000, A.D. 2025-May-10 00:00:00.0000, 8.165908040129817E+07, -4.566621130041159E+08, -4.076681811841756E+06,
2460812.500000000, A.D. 2025-May-17 00:00:00.0000, 9.111801826523142E+07, -4.559667146423547E+08, -2.842718041983515E+06,
2460819.500000000, A.D. 2025-May-24 00:00:00.0000, 1.005329649891278E+08, -4.550511895178753E+08, -1.607380343012810E+06,
2460826.500000000, A.D. 2025-May-31 00:00:00.0000, 1.098996954584300E+08, -4.539174436823242E+08, -3.712704748887420E+05,
2460833.500000000, A.D. 2025-Jun-07 00:00:00.0000, 1.192140563673601E+08, -4.525674255627151E+08, 8.650172681652308E+05,
2460840.500000000, A.D. 2025-Jun-14 00:00:00.0000, 1.284719634444338E+08, -4.510031224669933E+08, 2.100896139962345E+06,
2460847.500000000, A.D. 2025-Jun-21 00:00:00.0000, 1.376693977712790E+08, -4.492265597940540E+08, 3.335786895552158E+06,
2460854.500000000, A.D. 2025-Jun-28 00:00:00.0000, 1.468024043270432E+08, -4.472398011797524E+08, 4.569117473025233E+06,
2460861.500000000, A.D. 2025-Jul-05 00:00:00.0000, 1.558670912442386E+08, -4.450449474199466E+08, 5.800322719904333E+06,
2460868.500000000, A.D. 2025-Jul-12 00:00:00.0000, 1.648596285862406E+08, -4.426441349724346E+08, 7.028844208214581E+06,
2460875.500000000, A.D. 2025-Jul-19 00:00:00.0000, 1.737762468369686E+08, -4.400395346082196E+08, 8.254130074418843E+06,
2460882.500000000, A.D. 2025-Jul-26 00:00:00.0000, 1.826132353138762E+08, -4.372333502636095E+08, 9.475634860813230E+06,
2460889.500000000, A.D. 2025-Aug-02 00:00:00.0000, 1.913669405710967E+08, -4.342278180664684E+08, 1.069281935453692E+07,
2460896.500000000, A.D. 2025-Aug-09 00:00:00.0000, 2.000337648178570E+08, -4.310252055464424E+08, 1.190515042117459E+07,
2460903.500000000, A.D. 2025-Aug-16 00:00:00.0000, 2.086101644311125E+08, -4.276278110881256E+08, 1.311210082105693E+07,
2460910.500000000, A.D. 2025-Aug-23 00:00:00.0000, 2.170926488571507E+08, -4.240379636074572E+08, 1.431314898322731E+07,
2460917.500000000, A.D. 2025-Aug-30 00:00:00.0000, 2.254777802327758E+08, -4.202580217351609E+08, 1.550777876587483E+07,
2460924.500000000, A.D. 2025-Sep-06 00:00:00.0000, 2.337621723085919E+08, -4.162903715050489E+08, 1.669547941568941E+07,
2460931.500000000, A.D. 2025-Sep-13 00:00:00.0000, 2.419424870033914E+08, -4.121374250269625E+08, 1.787574567690718E+07,
2460938.500000000, A.D. 2025-Sep-20 00:00:00.0000, 2.500154318630957E+08, -4.078016217846640E+08, 1.904807761568987E+07,
2460945.500000000, A.D. 2025-Sep-27 00:00:00.0000, 2.579777594839726E+08, -4.032854294440547E+08, 2.021198031739075E+07,
2460952.500000000, A.D. 2025-Oct-04 00:00:00.0000, 2.658262668844430E+08, -3.985913436303461E+08, 2.136696368616463E+07,
2460959.500000000, A.D. 2025-Oct-11 00:00:00.0000, 2.735577944524245E+08, -3.937218876149166E+08, 2.251254230444381E+07,
2460966.500000000, A.D. 2025-Oct-18 00:00:00.0000, 2.811692247524085E+08, -3.886796121838551E+08, 2.364823530404197E+07,
2460973.500000000, A.D. 2025-Oct-25 00:00:00.0000, 2.886574813322878E+08, -3.834670956748172E+08, 2.477356623710513E+07,
2460980.500000000, A.D. 2025-Nov-01 00:00:00.0000, 2.960195275696869E+08, -3.780869441643329E+08, 2.588806294456661E+07,
2460987.500000000, A.D. 2025-Nov-08 00:00:00.0000, 3.032523655925325E+08, -3.725417918343931E+08, 2.699125741624479E+07,
2460994.500000000, A.D. 2025-Nov-15 00:00:00.0000, 3.103530354221779E+08, -3.668343015740784E+08, 2.808268562403104E+07,
2461001.500000000, A.D. 2025-Nov-22 00:00:00.0000, 3.173186147429149E+08, -3.609671655937581E+08, 2.916188730912407E+07,
2461008.500000000, A.D. 2025-Nov-29 00:00:00.0000, 3.241462191461542E+08, -3.549431049156310E+08, 3.022840583024563E+07,
2461015.500000000, A.D. 2025-Dec-06 00:00:00.0000, 3.308330005725470E+08, -3.487648678759795E+08, 3.128178827073593E+07,
2461022.500000000, A.D. 2025-Dec-13 00:00:00.0000, 3.373761443853713E+08, -3.424352310076376E+08, 3.232158548914924E+07,
2461029.500000000, A.D. 2025-Dec-20 00:00:00.0000, 3.437728685687773E+08, -3.359570012768672E+08, 3.334735187637343E+07,
2461036.500000000, A.D. 2025-Dec-27 00:00:00.0000, 3.500204239786320E+08, -3.293330170816892E+08, 3.435864512967688E+07,
2461043.500000000, A.D. 2026-Jan-03 00:00:00.0000, 3.561160941882134E+08, -3.225661486262789E+08, 3.535502612753566E+07,
2461050.500000000, A.D. 2026-Jan-10 00:00:00.0000, 3.620571950395715E+08, -3.156592983492834E+08, 3.633605884003440E+07,
2461057.500000000, A.D. 2026-Jan-17 00:00:00.0000, 3.678410741338474E+08, -3.086154014964725E+08, 3.730131024636263E+07,
2461064.500000000, A.D. 2026-Jan-24 00:00:00.0000, 3.734651103387625E+08, -3.014374268137462E+08, 3.825035025438288E+07,
2461071.500000000, A.D. 2026-Jan-31 00:00:00.0000, 3.789267133364261E+08, -2.941283773661475E+08, 3.918275161959617E+07,
2461078.500000000, A.D. 2026-Feb-07 00:00:00.0000, 3.842233232724139E+08, -2.866912915375586E+08, 4.009808985300279E+07,
2461085.500000000, A.D. 2026-Feb-14 00:00:00.0000, 3.893524107593634E+08, -2.791292442227821E+08, 4.099594309312154E+07,
2461092.500000000, A.D. 2026-Feb-21 00:00:00.0000, 3.943114776248557E+08, -2.714453476316234E+08, 4.187589195387315E+07,
2461099.500000000, A.D. 2026-Feb-28 00:00:00.0000, 3.990980573226951E+08, -2.636427505503567E+08, 4.273751954283241E+07,
2461106.500000000, A.D. 2026-Mar-07 00:00:00.0000, 4.037097129521273E+08, -2.557246380114318E+08, 4.358041168013584E+07,
2461113.500000000, A.D. 2026-Mar-14 00:00:00.0000, 4.081440356617720E+08, -2.476942337043386E+08, 4.440415687317497E+07,
2461120.500000000, A.D. 2026-Mar-21 00:00:00.0000, 4.123986452223590E+08, -2.395548022288437E+08, 4.520834612066758E+07,
2461127.500000000, A.D. 2026-Mar-28 00:00:00.0000, 4.164711907608064E+08, -2.313096501615255E+08, 4.599257281495740E+07,
2461134.500000000, A.D. 2026-Apr-04 00:00:00.0000, 4.203593510537282E+08, -2.229621269009055E+08, 4.675643271947152E+07,
2461141.500000000, A.D. 2026-Apr-11 00:00:00.0000, 4.240608346560481E+08, -2.145156256504517E+08, 4.749952396722137E+07,
2461148.500000000, A.D. 2026-Apr-18 00:00:00.0000, 4.275733800260787E+08, -2.059735845452982E+08, 4.822144706564281E+07,
2461155.500000000, A.D. 2026-Apr-25 00:00:00.0000, 4.308947556953604E+08, -1.973394879071428E+08, 4.892180490527906E+07,
2461162.500000000, A.D. 2026-May-02 00:00:00.0000, 4.340227605166051E+08, -1.886168676562242E+08, 4.960020276757932E+07,
2461169.500000000, A.D. 2026-May-09 00:00:00.0000, 4.369552241167997E+08, -1.798093049458058E+08, 5.025624831535642E+07,
2461176.500000000, A.D. 2026-May-16 00:00:00.0000, 4.396900079356669E+08, -1.709204318793637E+08, 5.088955154276288E+07,
2461183.500000000, A.D. 2026-May-23 00:00:00.0000, 4.422250069045609E+08, -1.619539322860438E+08, 5.149972476401020E+07,
2461190.500000000, A.D. 2026-May-30 00:00:00.0000, 4.445581496921538E+08, -1.529135412338637E+08, 5.208638285848132E+07,
2461197.500000000, A.D. 2026-Jun-06 00:00:00.0000, 4.466873972033612E+08, -1.438030465543912E+08, 5.264914353439948E+07,
2461204.500000000, A.D. 2026-Jun-13 00:00:00.0000, 4.486107429993557E+08, -1.346262921786678E+08, 5.318762729098934E+07,
2461211.500000000, A.D. 2026-Jun-20 00:00:00.0000, 4.503262151405226E+08, -1.253871803558661E+08, 5.370145736428387E+07,
2461218.500000000, A.D. 2026-Jun-27 00:00:00.0000, 4.518318777580894E+08, -1.160896730926234E+08, 5.419025978494591E+07,
2461225.500000000, A.D. 2026-Jul-04 00:00:00.0000, 4.531258323584841E+08, -1.067377935861813E+08, 5.465366348515289E+07,
2461232.500000000, A.D. 2026-Jul-11 00:00:00.0000, 4.542062191185005E+08, -9.733562778123742E+07, 5.509130042081710E+07,
2461239.500000000, A.D. 2026-Jul-18 00:00:00.0000, 4.550712182683124E+08, -8.788732602247809E+07, 5.550280570312804E+07,
2461246.500000000, A.D. 2026-Jul-25 00:00:00.0000, 4.557190515914065E+08, -7.839710479756726E+07, 5.588781773788427E+07,
2461253.500000000, A.D. 2026-Aug-01 00:00:00.0000, 4.561479840943608E+08, -6.886924861613397E+07, 5.624597836483593E+07,
2461260.500000000, A.D. 2026-Aug-08 00:00:00.0000, 4.563563260659213E+08, -5.930811205796050E+07, 5.657693297489396E+07,
2461267.500000000, A.D. 2026-Aug-15 00:00:00.0000, 4.563424359443339E+08, -4.971812153641276E+07, 5.688033060428396E+07,
2461274.500000000, A.D. 2026-Aug-22 00:00:00.0000, 4.561047232368621E+08, -4.010377555078816E+07, 5.715582417602389E+07,
2461281.500000000, A.D. 2026-Aug-29 00:00:00.0000, 4.556416492100143E+08, -3.046964479600458E+07, 5.740307098808177E+07,
2461288.500000000, A.D. 2026-Sep-05 00:00:00.0000, 4.549517274906224E+08, -2.082037499502483E+07, 5.762173301928000E+07,
$$EOE